[{"OBJECT_NAME":"TK-2","OBJECT_ID":"2022-031A","EPOCH":"2026-03-09T22:51:17.143200","MEAN_MOTION":15.02943491,"ECCENTRICITY":0.00164117,"INCLINATION":97.8366,"RA_OF_ASC_NODE":263.9365,"ARG_OF_PERICENTER":100.3205,"MEAN_ANOMALY":259.9871,"EPHEMERIS_TYPE":0,"CLASSIFICATION_TYPE":"U","NORAD_CAT_ID":52150,"ELEMENT_SET_NO":999,"REV_AT_EPOCH":21555,"BSTAR":0.00040164474,"MEAN_MOTION_DOT":5.349e-5,"MEAN_MOTION_DDOT":0},{"OBJECT_NAME":"STARLINK-5961","OBJECT_ID":"2023-083AQ","EPOCH":"2026-03-09T22:00:01.999584","MEAN_MOTION":15.0478658,"ECCENTRICITY":0.00024722,"INCLINATION":43.0015,"RA_OF_ASC_NODE":67.5695,"ARG_OF_PERICENTER":269.922,"MEAN_ANOMALY":109.0667,"EPHEMERIS_TYPE":0,"CLASSIFICATION_TYPE":"U","NORAD_CAT_ID":56914,"ELEMENT_SET_NO":999,"REV_AT_EPOCH":573,"BSTAR":0.007440428,"MEAN_MOTION_DOT":0.00108177,"MEAN_MOTION_DDOT":0}]
